[{"OBJECT_NAME":"COSMOS 2515","OBJECT_ID":"2016-020A","EPOCH":"2026-03-09T23:19:22.597248","MEAN_MOTION":15.0760084,"ECCENTRICITY":0.00222602,"INCLINATION":97.9825,"RA_OF_ASC_NODE":80.7081,"ARG_OF_PERICENTER":278.8424,"MEAN_ANOMALY":81.0282,"EPHEMERIS_TYPE":0,"CLASSIFICATION_TYPE":"U","NORAD_CAT_ID":41394,"ELEMENT_SET_NO":999,"REV_AT_EPOCH":54546,"BSTAR":0.00011725414,"MEAN_MOTION_DOT":1.724e-5,"MEAN_MOTION_DDOT":0},{"OBJECT_NAME":"STARLINK-4271","OBJECT_ID":"2022-076AC","EPOCH":"2026-03-09T10:48:16.399584","MEAN_MOTION":15.08834466,"ECCENTRICITY":0.00013299,"INCLINATION":53.2164,"RA_OF_ASC_NODE":95.1951,"ARG_OF_PERICENTER":93.3495,"MEAN_ANOMALY":266.7649,"EPHEMERIS_TYPE":0,"CLASSIFICATION_TYPE":"U","NORAD_CAT_ID":53012,"ELEMENT_SET_NO":999,"REV_AT_EPOCH":20281,"BSTAR":-1.765959e-5,"MEAN_MOTION_DOT":-5.69e-6,"MEAN_MOTION_DDOT":0}]
